STARLINK-34555          
1 64665U 25139B   26068.43699988  .00014438  00000+0  49860-3 0  9994
2 64665  53.1580 128.3422 0001190  84.8527 275.2610 15.30202868 40145
2025-313BE              
1 67482U 25313BE  26068.69721505  .00077178  00000+0  26504-2 0  9996
2 67482  97.3989 145.3568 0007208 335.3714  24.7181 15.29801687  7972
